ONEWEB-0389             
1 50469U 21132A   24283.12857766  .00000110  00000+0  24971-3 0  9991
2 50469  87.9095 128.5925 0001362  74.0275 286.1007 13.17649986138249
ONEWEB-0390             
1 50470U 21132B   24283.13025280  .00000095  00000+0  21125-3 0  9992
2 50470  87.9095 128.5998 0001796  72.4986 287.6342 13.17648195138242
ONEWEB-0391             
1 50471U 21132C   24283.13194169  .00000017  00000+0  10148-4 0  9994
2 50471  87.9103 128.5918 0001205  44.4104 315.7124 13.17652338138246
ONEWEB-0392             
1 50472U 21132D   24282.85858869  .00000125  00000+0  28966-3 0  9993
2 50472  87.9088 128.6305 0001245  69.7768 290.3497 13.17648116136956
ONEWEB-0393             
1 50473U 21132E   24283.13545499  .00000122  00000+0  28124-3 0  9991
2 50473  87.9099 128.5630 0001456  78.5633 281.5662 13.17648022138271
ONEWEB-0394             
1 50474U 21132F   24282.75305188  .00000281  00000+0  67892-3 0  9999
2 50474  87.9052  98.1392 0001556  89.2423 270.8887 13.18687196140353
ONEWEB-0395             
1 50475U 21132G   24283.52841864  .00000597  00000+0  16485-2 0  9993
2 50475  87.8923 143.7300 0001551  66.8671 293.2620 13.11418123136294
ONEWEB-0396             
1 50476U 21132H   24283.50548642  .00000095  00000+0  20821-3 0  9993
2 50476  87.9053  97.9914 0001537  91.5036 268.6273 13.18685690141765
ONEWEB-0397             
1 50477U 21132J   24282.76096219  .00000065  00000+0  13127-3 0  9997
2 50477  87.9051  98.1416 0001594  97.3728 262.7585 13.18689867140376
ONEWEB-0398             
1 50478U 21132K   24283.57247085 -.00000481  00000+0 -13939-2 0  9991
2 50478  87.8924 143.6956 0001877  67.1135 293.0191 13.11419212136206
ONEWEB-0399             
1 50479U 21132L   24283.17742063 -.00000351  00000+0 -10272-2 0  9997
2 50479  87.8923 143.7931 0001325  86.6994 273.4285 13.11414405136145
ONEWEB-0400             
1 50480U 21132M   24282.74039753  .00000196  00000+0  46422-3 0  9998
2 50480  87.9051  98.1448 0001833  83.9450 276.1891 13.18686114140364
ONEWEB-0401             
1 50481U 21132N   24283.54183614  .00000079  00000+0  16765-3 0  9991
2 50481  87.9043  97.9798 0001762 100.6192 259.5138 13.18687050141755
ONEWEB-0402             
1 50482U 21132P   24282.74831523  .00000124  00000+0  28291-3 0  9990
2 50482  87.9050  98.1362 0001875 114.3754 245.7574 13.18688082140391
ONEWEB-0403             
1 50483U 21132Q   24283.53080043  .00000141  00000+0  32598-3 0  9996
2 50483  87.9051  97.9896 0001385  95.6447 264.4843 13.18678500141738
ONEWEB-0404             
1 50484U 21132R   24283.15878949  .00000339  00000+0  92176-3 0  9992
2 50484  87.8930 143.7780 0001283  70.9137 289.2130 13.11416115136222
ONEWEB-0405             
1 50485U 21132S   24283.54659297  .00000018  00000+0  13904-4 0  9996
2 50485  87.9048  97.9762 0001646 104.3821 255.7494 13.18687236142149
ONEWEB-0406             
1 50486U 21132T   24282.85263092 -.00009459  00000+0 -24033-1 0  9996
2 50486  87.9049  98.1290 0001368  57.8588 302.2677 13.18733908140397
ONEWEB-0407             
1 50487U 21132U   24283.22569334  .00000049  00000+0  90870-4 0  9996
2 50487  87.9046  98.0510 0001574  95.5368 264.5944 13.18686310141676
ONEWEB-0409             
1 50488U 21132V   24283.15709064  .00000529  00000+0  14570-2 0  9999
2 50488  87.8922 143.7651 0001550  65.9062 294.2228 13.11413811136125
ONEWEB-0412             
1 50489U 21132W   24283.21463430  .00000115  00000+0  25914-3 0  9997
2 50489  87.9056  98.0586 0001682 106.9401 253.1916 13.18686904141758
ONEWEB-0413             
1 50490U 21132X   24283.21937565  .00000119  00000+0  26826-3 0  9991
2 50490  87.9052  98.0702 0001856 103.1850 256.9489 13.18685763141709
ONEWEB-0414             
1 50491U 21132Y   24283.50865491  .00000097  00000+0  21324-3 0  9995
2 50491  87.9050  97.9859 0001526  99.4860 260.6444 13.18688765141776
ONEWEB-0417             
1 50492U 21132Z   24283.21304828  .00000097  00000+0  21215-3 0  9995
2 50492  87.9057  98.0563 0001514  84.0657 276.0647 13.18686645141714
ONEWEB-0418             
1 50493U 21132AA  24282.53951199  .00000082  00000+0  17533-3 0  9991
2 50493  87.9044  98.1889 0001345  77.1129 283.0153 13.18685026140397
ONEWEB-0419             
1 50494U 21132AB  24283.54342757  .00000121  00000+0  27350-3 0  9990
2 50494  87.9042  98.0015 0001787  80.4877 279.6457 13.18688350141733
ONEWEB-0420             
1 50495U 21132AC  24283.51022379  .00000152  00000+0  35275-3 0  9992
2 50495  87.9047  98.0173 0001979  96.4760 263.6597 13.18685214141739
ONEWEB-0421             
1 50496U 21132AD  24282.74514769  .00000198  00000+0  47008-3 0  9993
2 50496  87.9058  98.1447 0001473 101.9055 258.2242 13.18685949140376
ONEWEB-0424             
1 50497U 21132AE  24282.85580067 -.00000005  00000+0 -44987-4 0  9993
2 50497  87.9045  98.1227 0001971  76.5664 283.5688 13.18687384140410
ONEWEB-0426             
1 50498U 21132AF  24283.50074528  .00000083  00000+0  17702-3 0  9995
2 50498  87.9046  98.0068 0001054  93.9474 266.1779 13.18688941141732
ONEWEB-0427             
1 50499U 21132AG  24283.53711341  .00000127  00000+0  29041-3 0  9998
2 50499  87.9042  97.9782 0001525  84.6671 275.4635 13.18687683141779
ONEWEB-0429             
1 50500U 21132AH  24283.22095318  .00000056  00000+0  10887-3 0  9995
2 50500  87.9048  98.0546 0001905  94.1065 266.0285 13.18686349141699
ONEWEB-0430             
1 50501U 21132AJ  24283.51338339  .00000041  00000+0  71075-4 0  9992
2 50501  87.9048  97.9971 0002078  82.8921 277.2448 13.18685946141773
ONEWEB-0432             
1 50502U 21132AK  24282.86212486 -.00000235  00000+0 -62827-3 0  9995
2 50502  87.9050  98.1186 0001798  77.4811 282.6522 13.18684347140354
ONEWEB-0440             
1 50503U 21132AL  24282.84946801  .00000034  00000+0  54386-4 0  9996
2 50503  87.9049  98.1130 0001671 106.4442 253.6874 13.18683738140345
ONEWEB-0450             
1 50504U 21132AM  24283.22268179 -.00000159  00000+0 -43597-3 0  9996
2 50504  87.9049  98.0675 0002143  91.9922 268.1456 13.18685698141711
ONEWEB-0410             
1 51622U 22012A   24283.07120031  .00000112  00000+0  25455-3 0  9993
2 51622  87.9091 128.5821 0000486  23.7996 336.3158 13.17649896133856
ONEWEB-0411             
1 51623U 22012B   24283.18977990  .00000884  00000+0  24964-2 0  9999
2 51623  87.8953 158.8795 0002257  66.2587 293.8777 13.10373136129892
ONEWEB-0415             
1 51624U 22012C   24282.72831742  .00000507  00000+0  14156-2 0  9997
2 51624  87.8951 158.9873 0001931  68.7502 291.3832 13.10372074128558
ONEWEB-0416             
1 51625U 22012D   24283.19807471  .00000524  00000+0  14657-2 0  9997
2 51625  87.8952 158.8961 0001682  74.9667 285.1647 13.10370618129942
ONEWEB-0422             
1 51626U 22012E   24283.53694849  .00000073  00000+0  15381-3 0  9994
2 51626  87.9092 128.4917 0002325  99.0358 261.1037 13.17647037134013
ONEWEB-0423             
1 51627U 22012F   24283.53019781  .00000093  00000+0  20756-3 0  9995
2 51627  87.9093 128.4954 0001634  87.6922 272.4397 13.17649007133919
ONEWEB-0425             
1 51628U 22012G   24282.90259965 -.00000123  00000+0 -38815-3 0  9997
2 51628  87.8950 158.9340 0001212  76.5058 283.6204 13.10369725128618
ONEWEB-0428             
1 51629U 22012H   24282.72998038  .00000382  00000+0  10571-2 0  9992
2 51629  87.8955 158.9857 0001937  76.5057 283.6286 13.10371881128559
ONEWEB-0431             
1 51630U 22012J   24282.92902587 -.00000516  00000+0 -15156-2 0  9995
2 51630  87.8956 158.9356 0002282  73.6270 286.5109 13.10375137128638
ONEWEB-0434             
1 51631U 22012K   24282.90591655 -.00000149  00000+0 -46438-3 0  9994
2 51631  87.8952 158.9623 0001684  83.3930 276.7389 13.10370617128615
ONEWEB-0435             
1 51632U 22012L   24283.21964053 -.00000348  00000+0 -10346-2 0  9995
2 51632  87.8955 158.8921 0001934  87.9478 272.1871 13.10371426129924
ONEWEB-0436             
1 51633U 22012M   24283.14208082  .00000057  00000+0  11304-3 0  9992
2 51633  87.9090 128.5723 0001924  85.9963 274.1389 13.17649596133841
ONEWEB-0438             
1 51634U 22012N   24283.20304964  .00000313  00000+0  86114-3 0  9992
2 51634  87.8948 158.8962 0001463  76.2846 283.8445 13.10371957129969
ONEWEB-0439             
1 51635U 22012P   24282.90093994  .00000050  00000+0  10718-3 0  9992
2 51635  87.8953 158.9417 0001654  79.2444 280.8870 13.10369251128615
ONEWEB-0442             
1 51636U 22012Q   24283.13448097  .00000114  00000+0  26101-3 0  9991
2 51636  87.9095 128.6125 0001210  60.5501 299.5751 13.17649944133831
ONEWEB-0443             
1 51637U 22012R   24282.85011653  .00000105  00000+0  23682-3 0  9995
2 51637  87.9092 128.6797 0001404  94.8808 265.2484 13.17644120132551
ONEWEB-0444             
1 51638U 22012S   24282.89098489  .00000491  00000+0  13699-2 0  9996
2 51638  87.8949 158.9594 0001679  82.1013 278.0305 13.10371200128621
ONEWEB-0445             
1 51639U 22012T   24283.21800136 -.00000410  00000+0 -12121-2 0  9996
2 51639  87.8944 158.8612 0001607  67.6239 292.5058 13.10371196129953
ONEWEB-0446             
1 51640U 22012U   24283.19477107  .00000673  00000+0  18910-2 0  9994
2 51640  87.8951 158.9011 0001748  65.5549 294.5761 13.10371916129957
ONEWEB-0448             
1 51641U 22012V   24283.19973469  .00000610  00000+0  17111-2 0  9990
2 51641  87.8952 158.9003 0001731  81.2366 278.8958 13.10369947129914
ONEWEB-0449             
1 51642U 22012W   24282.89928103  .00000155  00000+0  40681-3 0  9995
2 51642  87.8945 158.9486 0001362  75.0658 285.0620 13.10369818128593
ONEWEB-0451             
1 51643U 22012X   24283.13871204  .00000113  00000+0  25793-3 0  9994
2 51643  87.9089 128.5679 0001622  85.0509 275.0808 13.17649389133837
ONEWEB-0452             
1 51644U 22012Y   24283.13701780  .00000167  00000+0  39638-3 0  9998
2 51644  87.9094 128.6153 0001314  92.2509 267.8772 13.17652027133843
